ONEWEB-0639             
1 55803U 23029H   26149.91170689  .00000078  00000+0  16233-3 0  9992
2 55803  87.9152 308.6190 0000868  80.2838 279.8392 13.19726645156492
ONEWEB-0640             
1 55804U 23029J   26149.82984082  .00000044  00000+0  84061-4 0  9991
2 55804  87.8936 293.4048 0001895  76.2518 283.8823 13.14502046157000
ONEWEB-0641             
1 55805U 23029K   26149.90695758  .00000038  00000+0  61331-4 0  9998
2 55805  87.9157 308.6077 0001610  94.5475 265.5842 13.19727248156508
ONEWEB-0642             
1 55806U 23029L   26149.90222249 -.00000053  00000+0 -16468-3 0  9999
2 55806  87.9153 308.6220 0000961  98.6124 261.5118 13.19725760156496
ONEWEB-0643             
1 55807U 23029M   26149.41912876 -.00000129  00000+0 -38282-3 0  9990
2 55807  87.8938 293.4741 0001242 112.3574 247.7687 13.14502218156923
ONEWEB-0644             
1 55808U 23029N   26149.89746852 -.00000005  00000+0 -44560-4 0  9992
2 55808  87.9150 308.6247 0001443  97.1930 262.9366 13.19726988156492
ONEWEB-0645             
1 55809U 23029P   26149.99540831 -.00000043  00000+0 -13946-3 0  9998
2 55809  87.9151 308.6019 0001519  81.6224 278.5081 13.19726474156508
ONEWEB-0646             
1 55810U 23029Q   26149.86116325  .00000052  00000+0  98110-4 0  9998
2 55810  87.9153 308.6288 0001497  96.7178 263.4125 13.19725940156475
ONEWEB-0648             
1 55811U 23029R   26149.84411603  .00000222  00000+0  56508-3 0  9997
2 55811  87.8946 293.3610 0001074  75.2574 284.8675 13.14504379156986
ONEWEB-0649             
1 55812U 23029S   26149.88642566  .00000004  00000+0 -22551-4 0  9997
2 55812  87.9153 308.6216 0001577  88.9432 271.1881 13.19726615156513
ONEWEB-0650             
1 55813U 23029T   26149.88169058  .00000049  00000+0  90921-4 0  9992
2 55813  87.9151 308.6251 0001336  95.6123 264.5162 13.19726331156485
ONEWEB-0652             
1 55814U 23029U   26149.82508811 -.00000046  00000+0 -15967-3 0  9996
2 55814  87.8942 293.3727 0001973 100.3035 259.8318 13.14503829156956
ONEWEB-0653             
1 55815U 23029V   26149.80922200 -.00000196  00000+0 -56338-3 0  9990
2 55815  87.8945 293.3732 0001880  95.6977 264.4367 13.14502505156983
ONEWEB-0654             
1 55816U 23029W   26149.42388360 -.00000218  00000+0 -62137-3 0  9991
2 55816  87.8945 293.4466 0002193  97.3673 262.7706 13.14502896156957
ONEWEB-0656             
1 55817U 23029X   26149.79551972  .00000002  00000+0 -27415-4 0  9994
2 55817  87.9182 278.0957 0002341 100.1804 259.9594 13.20772029158724
ONEWEB-0657             
1 55818U 23029Y   26149.49787076 -.00000009  00000+0 -54951-4 0  9991
2 55818  87.9150 308.7002 0002166 112.4616 247.6747 13.19726230156446
