[{"OBJECT_NAME":"ONEWEB-0639","OBJECT_ID":"2023-029H","EPOCH":"2026-05-29T21:52:51.475296","MEAN_MOTION":13.19726645,"ECCENTRICITY":8.68e-05,"INCLINATION":87.9152,"RA_OF_ASC_NODE":308.619,"ARG_OF_PERICENTER":80.2838,"MEAN_ANOMALY":279.8392,"EPHEMERIS_TYPE":0,"CLASSIFICATION_TYPE":"U","NORAD_CAT_ID":55803,"ELEMENT_SET_NO":999,"REV_AT_EPOCH":15649,"BSTAR":0.00016233,"MEAN_MOTION_DOT":7.8e-07,"MEAN_MOTION_DDOT":0.0},{"OBJECT_NAME":"ONEWEB-0640","OBJECT_ID":"2023-029J","EPOCH":"2026-05-29T19:54:58.246848","MEAN_MOTION":13.14502046,"ECCENTRICITY":0.0001895,"INCLINATION":87.8936,"RA_OF_ASC_NODE":293.4048,"ARG_OF_PERICENTER":76.2518,"MEAN_ANOMALY":283.8823,"EPHEMERIS_TYPE":0,"CLASSIFICATION_TYPE":"U","NORAD_CAT_ID":55804,"ELEMENT_SET_NO":999,"REV_AT_EPOCH":15700,"BSTAR":8.406100000000001e-05,"MEAN_MOTION_DOT":4.4e-07,"MEAN_MOTION_DDOT":0.0},{"OBJECT_NAME":"ONEWEB-0641","OBJECT_ID":"2023-029K","EPOCH":"2026-05-29T21:46:01.134912","MEAN_MOTION":13.19727248,"ECCENTRICITY":0.000161,"INCLINATION":87.9157,"RA_OF_ASC_NODE":308.6077,"ARG_OF_PERICENTER":94.5475,"MEAN_ANOMALY":265.5842,"EPHEMERIS_TYPE":0,"CLASSIFICATION_TYPE":"U","NORAD_CAT_ID":55805,"ELEMENT_SET_NO":999,"REV_AT_EPOCH":15650,"BSTAR":6.1331e-05,"MEAN_MOTION_DOT":3.8e-07,"MEAN_MOTION_DDOT":0.0},{"OBJECT_NAME":"ONEWEB-0642","OBJECT_ID":"2023-029L","EPOCH":"2026-05-29T21:39:12.023136","MEAN_MOTION":13.1972576,"ECCENTRICITY":9.61e-05,"INCLINATION":87.9153,"RA_OF_ASC_NODE":308.622,"ARG_OF_PERICENTER":98.6124,"MEAN_ANOMALY":261.5118,"EPHEMERIS_TYPE":0,"CLASSIFICATION_TYPE":"U","NORAD_CAT_ID":55806,"ELEMENT_SET_NO":999,"REV_AT_EPOCH":15649,"BSTAR":-0.00016468,"MEAN_MOTION_DOT":-5.3e-07,"MEAN_MOTION_DDOT":0.0},{"OBJECT_NAME":"ONEWEB-0643","OBJECT_ID":"2023-029M","EPOCH":"2026-05-29T10:03:32.724864","MEAN_MOTION":13.14502218,"ECCENTRICITY":0.0001242,"INCLINATION":87.8938,"RA_OF_ASC_NODE":293.4741,"ARG_OF_PERICENTER":112.3574,"MEAN_ANOMALY":247.7687,"EPHEMERIS_TYPE":0,"CLASSIFICATION_TYPE":"U","NORAD_CAT_ID":55807,"ELEMENT_SET_NO":999,"REV_AT_EPOCH":15692,"BSTAR":-0.00038282,"MEAN_MOTION_DOT":-1.29e-06,"MEAN_MOTION_DDOT":0.0},{"OBJECT_NAME":"ONEWEB-0644","OBJECT_ID":"2023-029N","EPOCH":"2026-05-29T21:32:21.280128","MEAN_MOTION":13.19726988,"ECCENTRICITY":0.0001443,"INCLINATION":87.915,"RA_OF_ASC_NODE":308.6247,"ARG_OF_PERICENTER":97.193,"MEAN_ANOMALY":262.9366,"EPHEMERIS_TYPE":0,"CLASSIFICATION_TYPE":"U","NORAD_CAT_ID":55808,"ELEMENT_SET_NO":999,"REV_AT_EPOCH":15649,"BSTAR":-4.456e-05,"MEAN_MOTION_DOT":-5e-08,"MEAN_MOTION_DDOT":0.0},{"OBJECT_NAME":"ONEWEB-0645","OBJECT_ID":"2023-029P","EPOCH":"2026-05-29T23:53:23.277984","MEAN_MOTION":13.19726474,"ECCENTRICITY":0.0001519,"INCLINATION":87.9151,"RA_OF_ASC_NODE":308.6019,"ARG_OF_PERICENTER":81.6224,"MEAN_ANOMALY":278.5081,"EPHEMERIS_TYPE":0,"CLASSIFICATION_TYPE":"U","NORAD_CAT_ID":55809,"ELEMENT_SET_NO":999,"REV_AT_EPOCH":15650,"BSTAR":-0.00013946,"MEAN_MOTION_DOT":-4.3e-07,"MEAN_MOTION_DDOT":0.0},{"OBJECT_NAME":"ONEWEB-0646","OBJECT_ID":"2023-029Q","EPOCH":"2026-05-29T20:40:04.504800","MEAN_MOTION":13.1972594,"ECCENTRICITY":0.0001497,"INCLINATION":87.9153,"RA_OF_ASC_NODE":308.6288,"ARG_OF_PERICENTER":96.7178,"MEAN_ANOMALY":263.4125,"EPHEMERIS_TYPE":0,"CLASSIFICATION_TYPE":"U","NORAD_CAT_ID":55810,"ELEMENT_SET_NO":999,"REV_AT_EPOCH":15647,"BSTAR":9.811000000000001e-05,"MEAN_MOTION_DOT":5.2e-07,"MEAN_MOTION_DDOT":0.0},{"OBJECT_NAME":"ONEWEB-0648","OBJECT_ID":"2023-029R","EPOCH":"2026-05-29T20:15:31.624992","MEAN_MOTION":13.14504379,"ECCENTRICITY":0.0001074,"INCLINATION":87.8946,"RA_OF_ASC_NODE":293.361,"ARG_OF_PERICENTER":75.2574,"MEAN_ANOMALY":284.8675,"EPHEMERIS_TYPE":0,"CLASSIFICATION_TYPE":"U","NORAD_CAT_ID":55811,"ELEMENT_SET_NO":999,"REV_AT_EPOCH":15698,"BSTAR":0.00056508,"MEAN_MOTION_DOT":2.22e-06,"MEAN_MOTION_DDOT":0.0},{"OBJECT_NAME":"ONEWEB-0649","OBJECT_ID":"2023-029S","EPOCH":"2026-05-29T21:16:27.177024","MEAN_MOTION":13.19726615,"ECCENTRICITY":0.0001577,"INCLINATION":87.9153,"RA_OF_ASC_NODE":308.6216,"ARG_OF_PERICENTER":88.9432,"MEAN_ANOMALY":271.1881,"EPHEMERIS_TYPE":0,"CLASSIFICATION_TYPE":"U","NORAD_CAT_ID":55812,"ELEMENT_SET_NO":999,"REV_AT_EPOCH":15651,"BSTAR":-2.2551e-05,"MEAN_MOTION_DOT":4e-08,"MEAN_MOTION_DDOT":0.0},{"OBJECT_NAME":"ONEWEB-0650","OBJECT_ID":"2023-029T","EPOCH":"2026-05-29T21:09:38.066112","MEAN_MOTION":13.19726331,"ECCENTRICITY":0.0001336,"INCLINATION":87.9151,"RA_OF_ASC_NODE":308.6251,"ARG_OF_PERICENTER":95.6123,"MEAN_ANOMALY":264.5162,"EPHEMERIS_TYPE":0,"CLASSIFICATION_TYPE":"U","NORAD_CAT_ID":55813,"ELEMENT_SET_NO":999,"REV_AT_EPOCH":15648,"BSTAR":9.0921e-05,"MEAN_MOTION_DOT":4.9e-07,"MEAN_MOTION_DDOT":0.0},{"OBJECT_NAME":"ONEWEB-0652","OBJECT_ID":"2023-029U","EPOCH":"2026-05-29T19:48:07.612704","MEAN_MOTION":13.14503829,"ECCENTRICITY":0.0001973,"INCLINATION":87.8942,"RA_OF_ASC_NODE":293.3727,"ARG_OF_PERICENTER":100.3035,"MEAN_ANOMALY":259.8318,"EPHEMERIS_TYPE":0,"CLASSIFICATION_TYPE":"U","NORAD_CAT_ID":55814,"ELEMENT_SET_NO":999,"REV_AT_EPOCH":15695,"BSTAR":-0.00015967000000000002,"MEAN_MOTION_DOT":-4.6e-07,"MEAN_MOTION_DDOT":0.0},{"OBJECT_NAME":"ONEWEB-0653","OBJECT_ID":"2023-029V","EPOCH":"2026-05-29T19:25:16.780800","MEAN_MOTION":13.14502505,"ECCENTRICITY":0.000188,"INCLINATION":87.8945,"RA_OF_ASC_NODE":293.3732,"ARG_OF_PERICENTER":95.6977,"MEAN_ANOMALY":264.4367,"EPHEMERIS_TYPE":0,"CLASSIFICATION_TYPE":"U","NORAD_CAT_ID":55815,"ELEMENT_SET_NO":999,"REV_AT_EPOCH":15698,"BSTAR":-0.00056338,"MEAN_MOTION_DOT":-1.96e-06,"MEAN_MOTION_DDOT":0.0},{"OBJECT_NAME":"ONEWEB-0654","OBJECT_ID":"2023-029W","EPOCH":"2026-05-29T10:10:23.543040","MEAN_MOTION":13.14502896,"ECCENTRICITY":0.0002193,"INCLINATION":87.8945,"RA_OF_ASC_NODE":293.4466,"ARG_OF_PERICENTER":97.3673,"MEAN_ANOMALY":262.7706,"EPHEMERIS_TYPE":0,"CLASSIFICATION_TYPE":"U","NORAD_CAT_ID":55816,"ELEMENT_SET_NO":999,"REV_AT_EPOCH":15695,"BSTAR":-0.00062137,"MEAN_MOTION_DOT":-2.18e-06,"MEAN_MOTION_DDOT":0.0},{"OBJECT_NAME":"ONEWEB-0656","OBJECT_ID":"2023-029X","EPOCH":"2026-05-29T19:05:32.903808","MEAN_MOTION":13.20772029,"ECCENTRICITY":0.0002341,"INCLINATION":87.9182,"RA_OF_ASC_NODE":278.0957,"ARG_OF_PERICENTER":100.1804,"MEAN_ANOMALY":259.9594,"EPHEMERIS_TYPE":0,"CLASSIFICATION_TYPE":"U","NORAD_CAT_ID":55817,"ELEMENT_SET_NO":999,"REV_AT_EPOCH":15872,"BSTAR":-2.7415e-05,"MEAN_MOTION_DOT":2e-08,"MEAN_MOTION_DDOT":0.0},{"OBJECT_NAME":"ONEWEB-0657","OBJECT_ID":"2023-029Y","EPOCH":"2026-05-29T11:56:56.033664","MEAN_MOTION":13.1972623,"ECCENTRICITY":0.0002166,"INCLINATION":87.915,"RA_OF_ASC_NODE":308.7002,"ARG_OF_PERICENTER":112.4616,"MEAN_ANOMALY":247.6747,"EPHEMERIS_TYPE":0,"CLASSIFICATION_TYPE":"U","NORAD_CAT_ID":55818,"ELEMENT_SET_NO":999,"REV_AT_EPOCH":15644,"BSTAR":-5.495100000000001e-05,"MEAN_MOTION_DOT":-9e-08,"MEAN_MOTION_DDOT":0.0}]